NORAD_CAT_ID,OBJECT_NAME,OBJECT_TYPE,EPOCH,MEAN_MOTION,ECCENTRICITY,INCLINATION,RA_OF_ASC_NODE,ARG_OF_PERICENTER,MEAN_ANOMALY,BSTAR,MEAN_MOTION_DOT,MEAN_MOTION_DDOT,TLE_LINE0,TLE_LINE1,TLE_LINE2,SEMIMAJOR_AXIS,PERIOD,APOGEE,PERIGEE,DECAYED
51785.0,STARLINK-3646,PAYLOAD,2023-03-13 09:50:57,15.08837397,8.69e-05,53.2156,202.5544,83.0708,277.0383,0.00017619,2.517e-05,0.0,0 STARLINK-3646,1 51785U 22017T   23072.41039098  .00002517  00000-0  17619-3 0  9998,2 51785  53.2156 202.5544 0000869  83.0708 277.0383 15.08837397 59219,6917.888,95.438,540.355,539.152,0.0
51785.0,STARLINK-3646,PAYLOAD,2023-03-13 16:12:29,15.08852561,9.88e-05,53.216,201.3643,95.0529,265.0576,0.00033418,5.036e-05,0.0,0 STARLINK-3646,1 51785U 22017T   23072.67534399  .00005036  00000-0  33418-3 0  9994,2 51785  53.2160 201.3643 0000988  95.0529 265.0576 15.08852561 59252,6917.842,95.437,540.39,539.024,0.0
51785.0,STARLINK-3646,PAYLOAD,2023-03-14 14:27:54,15.08844614,0.0001615,53.2127,197.2,85.0971,275.0205,0.00023589,3.469e-05,0.0,0 STARLINK-3646,1 51785U 22017T   23073.60270896  .00003469  00000-0  23589-3 0  9993,2 51785  53.2127 197.2000 0001615  85.0971 275.0205 15.08844614 59398,6917.866,95.437,540.849,538.614,0.0
51785.0,STARLINK-3646,PAYLOAD,2023-03-14 16:03:17,15.08843407,0.0001526,53.2127,196.9016,94.0372,266.0794,0.00017117,2.437e-05,0.0,0 STARLINK-3646,1 51785U 22017T   23073.66894888  .00002437  00000-0  17117-3 0  9996,2 51785  53.2127 196.9016 0001526  94.0372 266.0794 15.08843407 57713,6917.87,95.437,540.791,538.679,0.0
51785.0,STARLINK-3646,PAYLOAD,2023-03-15 12:43:20,15.08814092,0.0001138,53.2154,193.0377,97.4668,262.6454,-0.00031057,-5.224e-05,0.0,0 STARLINK-3646,1 51785U 22017T   23074.53009463 -.00005224  00000-0 -31057-3 0  9998,2 51785  53.2154 193.0377 0001138  97.4668 262.6454 15.08814092 59530,6917.96,95.439,540.612,539.037,0.0
51785.0,STARLINK-3646,PAYLOAD,2023-03-15 15:54:06,15.08814172,0.0001141,53.2146,192.4423,103.1317,256.9803,-0.00026699,-4.531e-05,0.0,0 STARLINK-3646,1 51785U 22017T   23074.66257680 -.00004531  00000-0 -26699-3 0  9994,2 51785  53.2146 192.4423 0001141 103.1317 256.9803 15.08814172 57863,6917.959,95.439,540.614,539.035,0.0
51785.0,STARLINK-3646,PAYLOAD,2023-03-16 10:58:43,15.08839859,0.0001476,53.2145,188.8759,103.6012,256.5145,0.00019693,2.848e-05,0.0,0 STARLINK-3646,1 51785U 22017T   23075.45745143  .00002848  00000-0  19693-3 0  9991,2 51785  53.2145 188.8759 0001476 103.6012 256.5145 15.08839859 59676,6917.881,95.438,540.767,538.725,0.0
51785.0,STARLINK-3646,PAYLOAD,2023-03-16 17:20:15,15.08861271,0.0001369,53.2138,187.6836,99.716,260.3986,0.00052736,8.12e-05,0.0,0 STARLINK-3646,1 51785U 22017T   23075.72240180  .00008120  00000-0  52736-3 0  9996,2 51785  53.2138 187.6836 0001369  99.7160 260.3986 15.08861271 59715,6917.815,95.436,540.627,538.733,0.0
51785.0,STARLINK-3646,PAYLOAD,2023-03-17 07:38:44,15.08844121,0.0002542,53.2116,185.0012,122.7046,237.4191,0.00044093,6.737e-05,0.0,0 STARLINK-3646,1 51785U 22017T   23076.31857191  .00006737  00000-0  44093-3 0  9997,2 51785  53.2116 185.0012 0002542 122.7046 237.4191 15.08844121 59801,6917.868,95.437,541.491,537.974,0.0
51785.0,STARLINK-3646,PAYLOAD,2023-03-17 14:00:17,15.08840756,9.68e-05,53.2153,183.8205,64.289,295.8202,0.00033491,5.046e-05,0.0,0 STARLINK-3646,1 51785U 22017T   23076.58353601  .00005046  00000-0  33491-3 0  9995,2 51785  53.2153 183.8205 0000968  64.2890 295.8202 15.08840756 58157,6917.878,95.438,540.413,539.073,0.0
51785.0,STARLINK-3646,PAYLOAD,2023-03-18 13:51:02,15.08872595,0.0001157,53.2167,179.3634,79.7099,280.4024,0.00016595,2.357e-05,0.0,0 STARLINK-3646,1 51785U 22017T   23077.57710958  .00002357  00000-0  16595-3 0  9995,2 51785  53.2167 179.3634 0001157  79.7099 280.4024 15.08872595 59992,6917.781,95.435,540.446,538.845,0.0
51785.0,STARLINK-3646,PAYLOAD,2023-03-18 17:01:47,15.08880153,0.0001094,53.2149,178.7642,72.2761,287.8351,0.00021626,3.159e-05,0.0,0 STARLINK-3646,1 51785U 22017T   23077.70958177  .00003159  00000-0  21626-3 0  9999,2 51785  53.2149 178.7642 0001094  72.2761 287.8351 15.08880153 58327,6917.758,95.435,540.379,538.866,0.0
51785.0,STARLINK-3646,PAYLOAD,2023-03-19 05:44:54,15.08842665,8.84e-05,53.2132,176.3832,87.3319,272.7774,-4.7356e-05,-1.041e-05,0.0,0 STARLINK-3646,1 51785U 22017T   23078.23951771 -.00001041  00000-0 -47356-4 0  9990,2 51785  53.2132 176.3832 0000884  87.3319 272.7774 15.08842665 60091,6917.872,95.437,540.349,539.126,0.0
51785.0,STARLINK-3646,PAYLOAD,2023-03-19 13:41:49,15.08844293,8.36e-05,53.2147,174.8992,68.1678,291.9403,-1.1328e-05,-4.68e-06,0.0,0 STARLINK-3646,1 51785U 22017T   23078.57071547 -.00000468  00000-0 -11328-4 0  9993,2 51785  53.2147 174.8992 0000836  68.1678 291.9403 15.08844293 58457,6917.867,95.437,540.311,539.154,0.0
51785.0,STARLINK-3646,PAYLOAD,2023-03-19 16:52:35,15.08855505,0.0001117,53.213,174.3034,80.0516,280.0602,7.9996e-05,9.86e-06,0.0,0 STARLINK-3646,1 51785U 22017T   23078.70318881  .00000986  00000-0  79996-4 0  9991,2 51785  53.2130 174.3034 0001117  80.0516 280.0602 15.08855505 60167,6917.833,95.437,540.471,538.925,0.0
51785.0,STARLINK-3646,PAYLOAD,2023-03-20 05:35:40,15.08844254,0.0001283,53.2149,171.9247,89.7006,270.4133,-9.8151e-05,-1.85e-05,0.0,0 STARLINK-3646,1 51785U 22017T   23079.23311063 -.00001850  00000-0 -98151-4 0  9992,2 51785  53.2149 171.9247 0001283  89.7006 270.4133 15.08844254 60240,6917.867,95.437,540.62,538.845,0.0
51785.0,STARLINK-3646,PAYLOAD,2023-03-20 13:32:36,15.08851746,0.0001356,53.2154,170.4389,84.2726,275.8421,0.00023999,3.535e-05,0.0,0 STARLINK-3646,1 51785U 22017T   23079.56430696  .00003535  00000-0  23999-3 0  9999,2 51785  53.2154 170.4389 0001356  84.2726 275.8421 15.08851746 58607,6917.844,95.437,540.648,538.771,0.0
51785.0,STARLINK-3646,PAYLOAD,2023-03-21 07:01:51,15.08840907,0.0001431,53.2142,167.1673,79.3635,280.7518,5.6774e-05,6.16e-06,0.0,0 STARLINK-3646,1 51785U 22017T   23080.29295162  .00000616  00000-0  56774-4 0  9993,2 51785  53.2142 167.1673 0001431  79.3635 280.7518 15.08840907 60401,6917.878,95.437,540.733,538.753,0.0
51785.0,STARLINK-3646,PAYLOAD,2023-03-21 13:23:23,15.08841354,0.0001433,53.2153,165.9789,78.3975,281.7178,6.9012e-05,8.11e-06,0.0,0 STARLINK-3646,1 51785U 22017T   23080.55791257  .00000811  00000-0  69012-4 0  9994,2 51785  53.2153 165.9789 0001433  78.3975 281.7178 15.08841354 58750,6917.876,95.437,540.733,538.75,0.0
51785.0,STARLINK-3646,PAYLOAD,2023-03-22 05:17:15,15.08834217,0.000124,53.2147,163.0055,91.4214,268.6921,5.4331e-05,5.77e-06,0.0,0 STARLINK-3646,1 51785U 22017T   23081.22031648  .00000577  00000-0  54331-4 0  9997,2 51785  53.2147 163.0055 0001240  91.4214 268.6921 15.08834217 60546,6917.898,95.438,540.621,538.905,0.0
51785.0,STARLINK-3646,PAYLOAD,2023-03-22 11:38:47,15.08837304,0.000144,53.2145,161.8168,81.2604,278.8551,7.4455e-05,8.97e-06,0.0,0 STARLINK-3646,1 51785U 22017T   23081.48527719  .00000897  00000-0  74455-4 0  9998,2 51785  53.2145 161.8168 0001440  81.2604 278.8551 15.08837304 58894,6917.889,95.438,540.75,538.757,0.0
51785.0,STARLINK-3646,PAYLOAD,2023-03-23 11:29:34,15.08849239,0.0001407,53.2148,157.3555,80.4937,279.6214,0.00031561,4.74e-05,0.0,0 STARLINK-3646,1 51785U 22017T   23082.47887437  .00004740  00000-0  31561-3 0  9995,2 51785  53.2148 157.3555 0001407  80.4937 279.6214 15.08849239 60731,6917.852,95.437,540.69,538.744,0.0
51785.0,STARLINK-3646,PAYLOAD,2023-03-24 04:58:48,15.08875273,0.0001374,53.2141,154.0837,84.8667,275.2482,0.00099449,0.0001559,0.0,0 STARLINK-3646,1 51785U 22017T   23083.20750624  .00015590  00000-0  99449-3 0  9998,2 51785  53.2141 154.0837 0001374  84.8667 275.2482 15.08875273 60840,6917.773,95.435,540.588,538.687,0.0
51785.0,STARLINK-3646,PAYLOAD,2023-03-24 11:20:20,15.08864264,0.0001467,53.2152,152.894,97.2716,262.8443,0.00044465,6.8e-05,0.0,0 STARLINK-3646,1 51785U 22017T   23083.47246206  .00006800  00000-0  44465-3 0  9995,2 51785  53.2152 152.8940 0001467  97.2716 262.8443 15.08864264 60880,6917.806,95.436,540.686,538.656,0.0
51785.0,STARLINK-3646,PAYLOAD,2023-03-25 04:49:37,15.08807096,0.0001569,53.2154,149.6224,89.3094,270.8078,-0.00057276,-9.384e-05,0.0,0 STARLINK-3646,1 51785U 22017T   23084.20112943 -.00009384  00000-0 -57276-3 0  9993,2 51785  53.2154 149.6224 0001569  89.3094 270.8078 15.08807096 60990,6917.981,95.44,540.931,538.761,0.0
51785.0,STARLINK-3646,PAYLOAD,2023-03-25 20:43:29,15.0881213,0.0001344,53.2155,146.6502,119.8128,240.2998,-0.00015254,-2.713e-05,0.0,0 STARLINK-3646,1 51785U 22017T   23084.86354119 -.00002713  00000-0 -15254-3 0  9997,2 51785  53.2155 146.6502 0001344 119.8128 240.2998 15.08812130 61094,6917.966,95.439,540.76,538.901,0.0
51785.0,STARLINK-3646,PAYLOAD,2023-03-26 04:40:25,15.08837563,0.0001419,53.2152,145.1622,108.0667,252.0479,0.00041079,6.255e-05,0.0,0 STARLINK-3646,1 51785U 22017T   23085.19473457  .00006255  00000-0  41079-3 0  9998,2 51785  53.2152 145.1622 0001419 108.0667 252.0479 15.08837563 61147,6917.888,95.438,540.734,538.771,0.0
51785.0,STARLINK-3646,PAYLOAD,2023-03-26 20:34:16,15.08843755,0.0001561,53.2158,142.1899,111.5795,248.5363,0.00054801,8.445e-05,0.0,0 STARLINK-3646,1 51785U 22017T   23085.85713575  .00008445  00000-0  54801-3 0  9999,2 51785  53.2158 142.1899 0001561 111.5795 248.5363 15.08843755 59559,6917.869,95.437,540.814,538.654,0.0
51785.0,STARLINK-3646,PAYLOAD,2023-03-27 04:31:12,15.08836999,0.0001713,53.2166,140.7031,123.6927,236.4228,0.00060349,9.329e-05,0.0,0 STARLINK-3646,1 51785U 22017T   23086.18833803  .00009329  00000-0  60349-3 0  9999,2 51785  53.2166 140.7031 0001713 123.6927 236.4228 15.08836999 61292,6917.89,95.438,540.94,538.57,0.0
51785.0,STARLINK-3646,PAYLOAD,2023-03-27 12:28:07,15.08840398,0.0001421,53.216,139.2146,115.9552,244.1587,0.00051865,7.976e-05,0.0,0 STARLINK-3646,1 51785U 22017T   23086.51952939  .00007976  00000-0  51865-3 0  9997,2 51785  53.2160 139.2146 0001421 115.9552 244.1587 15.08840398 59659,6917.879,95.438,540.727,538.761,0.0
